1 45669U 20035N   22365.12873650  .00016052  00000-0  10932-2 0  9991
2 45669  53.0544 254.5389 0001472  81.5479 278.5676 15.06429194142781
1 45669U 20035N   22365.39412033  .00007960  00000-0  55227-3 0  9999
2 45669  53.0538 253.3465 0001514  78.8377 281.2782 15.06426991143242
1 45669U 20035N   22365.39412033  .00007960  00000-0  55227-3 0  9999
2 45669  53.0538 253.3465 0001514  78.8377 281.2782 15.06426991142825
1 45669U 20035N   22365.72585263  .00005620  00000-0  39563-3 0  9998
2 45669  53.0539 251.8595 0001854  93.9847 266.1353 15.06422347143299
1 45669U 20035N   23001.12393379 -.00001996  00000-0 -11515-3 0  9996
2 45669  53.0542 250.0716 0001347  85.9448 274.1695 15.06404010142939
1 45669U 20035N   23001.38932631 -.00002624  00000-0 -15737-3 0  9993
2 45669  53.0544 248.8804 0001383  87.3053 272.8094 15.06389703143392
1 45669U 20035N   23001.38932631 -.00002624  00000-0 -15737-3 0  9993
2 45669  53.0544 248.8804 0001383  87.3053 272.8094 15.06389703142975
1 45669U 20035N   23001.72106654 -.00001313  00000-0 -69295-4 0  9992
2 45669  53.0544 247.3911 0001463  87.8713 272.2443 15.06379646143445
1 45669U 20035N   23002.38454106  .00006137  00000-0  43066-3 0  9997
2 45669  53.0543 244.4129 0001350  86.7619 273.3524 15.06389905143543
1 45669U 20035N   23002.91531357  .00011620  00000-0  79760-3 0  9993
2 45669  53.0534 242.0301 0001147  86.8380 273.2740 15.06405787143624
1 45669U 20035N   23002.91531357  .00011620  00000-0  79760-3 0  9993
2 45669  53.0534 242.0301 0001147  86.8380 273.2740 15.06405787143208
1 45669U 20035N   23003.37973706  .00013368  00000-0  91413-3 0  9992
2 45669  53.0537 239.9453 0001296  78.2910 281.8224 15.06420468143691
1 45669U 20035N   23003.91050848  .00003729  00000-0  26899-3 0  9991
2 45669  53.0540 237.5626 0001290  84.6147 275.4989 15.06412494143358
1 45669U 20035N   23004.37493214  .00009818  00000-0  67677-3 0  9994
2 45669  53.0540 235.4778 0001281  83.4415 276.6720 15.06418104143842
1 45669U 20035N   23004.90571013  .00008612  00000-0  59612-3 0  9998
2 45669  53.0525 233.0974 0001164  74.2777 285.8340 15.06413010143926
1 45669U 20035N   23005.03840401  .00006920  00000-0  48291-3 0  9994
2 45669  53.0530 232.4992 0001232  79.5714 280.5414 15.06407304143945
1 45669U 20035N   23005.03840401  .00006920  00000-0  48291-3 0  9994
2 45669  53.0530 232.4992 0001232  79.5714 280.5414 15.06407304143529
1 45669U 20035N   23005.76823394 -.00003640  00000-0 -22571-3 0  9997
2 45669  53.0536 229.2224 0000993 101.9668 258.1432 15.06379115144056
1 45669U 20035N   23006.29901762 -.00001163  00000-0 -59245-4 0  9999
2 45669  53.0537 226.8403 0001033  89.5083 270.6024 15.06377779143719
1 45669U 20035N   23006.56440902 -.00001680  00000-0 -93969-4 0  9998
2 45669  53.0533 225.6493 0001013  91.0533 269.0572 15.06376940144177
1 45669U 20035N   23007.02884152  .00001596  00000-0  12607-3 0  9992
2 45669  53.0529 223.5646 0001012  91.7057 268.4048 15.06382379144248
1 45669U 20035N   23007.69231599  .00007002  00000-0  48856-3 0  9999
2 45669  53.0527 220.5863 0001054  95.4381 264.6728 15.06392148144340
1 45669U 20035N   23007.69231599  .00007002  00000-0  48856-3 0  9999
2 45669  53.0527 220.5863 0001054  95.4381 264.6728 15.06392148143923
1 45669U 20035N   23008.55482239  .00006738  00000-0  47073-3 0  9999
2 45669  53.0524 216.7142 0001064  96.3552 263.7558 15.06406057144475
1 45669U 20035N   23008.62116912  .00006285  00000-0  44040-3 0  9997
2 45669  53.0525 216.4162 0001070  96.4429 263.6682 15.06405928144480
1 45669U 20035N   23008.95290087  .00006899  00000-0  48145-3 0  9990
2 45669  53.0525 214.9270 0001051  95.5012 264.6097 15.06410702144117
1 45669U 20035N   23009.55001766  .00004609  00000-0  32802-3 0  9991
2 45669  53.0523 212.2462 0001069  95.4623 264.6488 15.06412544144621
1 45669U 20035N   23010.27982948  .00000430  00000-0  47773-4 0  9994
2 45669  53.0517 208.9692 0001064  94.1527 265.9584 15.06405752144315
1 45669U 20035N   23010.54521699  .00000123  00000-0  27180-4 0  9995
2 45669  53.0516 207.7772 0001355  92.3711 267.7433 15.06405101144779
1 45669U 20035N   23010.81060472 -.00000153  00000-0  86485-5 0  9990
2 45669  53.0519 206.5858 0001341  91.9179 268.1964 15.06403549144815
1 45669U 20035N   23011.54041649  .00000136  00000-0  28034-4 0  9991
2 45669  53.0513 203.3091 0001414  92.1345 267.9806 15.06405413144928
1 45669U 20035N   23011.80580212  .00000614  00000-0  60111-4 0  9997
2 45669  53.0530 202.1193 0001230  88.6683 271.4447 15.06406392144960
1 45669U 20035N   23011.80580212  .00000614  00000-0  60111-4 0  9997
2 45669  53.0530 202.1193 0001230  88.6683 271.4447 15.06406392144544
1 45669U 20035N   23012.80101255  .00000355  00000-0  42697-4 0  9995
2 45669  53.0545 197.6518 0001112  86.6601 273.4516 15.06394032145116
1 45669U 20035N   23012.80101255  .00000355  00000-0  42697-4 0  9995
2 45669  53.0545 197.6518 0001112  86.6601 273.4516 15.06394032144698
1 45669U 20035N   23013.19909177  .00000616  00000-0  60273-4 0  9997
2 45669  53.0543 195.8645 0001100  85.7702 274.3413 15.06397938145174
1 45669U 20035N   23013.92890585  .00000402  00000-0  45854-4 0  9991
2 45669  53.0541 192.5880 0001107  84.9033 275.2082 15.06400268145287
1 45669U 20035N   23014.19429440  .00000895  00000-0  78963-4 0  9992
2 45669  53.0541 191.3961 0001067  82.2947 277.8163 15.06397572144903
1 45669U 20035N   23015.52123148  .00000853  00000-0  76162-4 0  9999
2 45669  53.0535 185.4396 0001266  87.8235 272.2899 15.06399358145522
1 45669U 20035N   23015.52123148  .00000853  00000-0  76162-4 0  9999
2 45669  53.0535 185.4396 0001266  87.8235 272.2899 15.06399358145106
1 45669U 20035N   23015.72026945  .00001187  00000-0  98577-4 0  9993
2 45669  53.0544 184.5460 0001123  89.0877 271.0241 15.06401856145550
1 45669U 20035N   23016.18469162 -.00002070  00000-0 -12008-3 0  9994
2 45669  53.0547 182.4618 0000832  88.4792 271.6293 15.06415729145209
1 45669U 20035N   23016.45008755  .00000817  00000-0  73735-4 0  9991
2 45669  53.0550 181.2701 0001216  93.9477 266.1651 15.06398654145665
1 45669U 20035N   23016.45008755  .00000817  00000-0  73735-4 0  9991
2 45669  53.0550 181.2701 0001216  93.9477 266.1651 15.06398654145249
1 45669U 20035N   23016.71547194  .00000996  00000-0  85757-4 0  9990
2 45669  53.0551 180.0791 0001230  93.4478 266.6652 15.06402101145708
1 45669U 20035N   23017.44529467  .00000130  00000-0  27589-4 0  9993
2 45669  53.0550 176.8037 0001235  90.8718 269.2412 15.06392988145812
1 45669U 20035N   23017.44529467  .00000130  00000-0  27589-4 0  9993
2 45669  53.0550 176.8037 0001235  90.8718 269.2412 15.06392988145395
1 45669U 20035N   23018.57319915  .00001468  00000-0  11743-3 0  9992
2 45669  53.0540 171.7408 0001060  87.0270 273.0840 15.06396983145989
1 45669U 20035N   23018.57319915  .00001468  00000-0  11743-3 0  9992
2 45669  53.0540 171.7408 0001060  87.0270 273.0840 15.06396983145563
1 45669U 20035N   23018.63954299  .00001704  00000-0  13324-3 0  9999
2 45669  53.0550 171.4426 0001224  97.4339 262.6789 15.06401614145995
1 45669U 20035N   23019.36935373 -.00001321  00000-0 -69760-4 0  9995
2 45669  53.0564 168.1679 0001481  88.6506 271.4653 15.06419424146106
1 45669U 20035N   23019.36935373 -.00001321  00000-0 -69760-4 0  9995
2 45669  53.0564 168.1679 0001481  88.6506 271.4653 15.06419424145688
1 45669U 20035N   23019.56839899  .00003090  00000-0  22625-3 0  9994
2 45669  53.0566 167.2739 0001176  99.2314 260.8808 15.06398114145713
1 45669U 20035N   23020.43091198 -.00000373  00000-0 -61344-5 0  9990
2 45669  53.0569 163.4018 0001584 105.9285 254.1879 15.06405025146264
1 45669U 20035N   23020.62994804  .00000145  00000-0  28651-4 0  9995
2 45669  53.0574 162.5080 0001432 104.0311 256.0838 15.06407950145872
1 45669U 20035N   23021.42611139 -.00000626  00000-0 -23097-4 0  9996
2 45669  53.0569 158.9342 0001761 103.7995 256.3190 15.06402094145996
1 45669U 20035N   23021.69149016  .00000435  00000-0  48113-4 0  9997
2 45669  53.0552 157.7415 0001354  87.8075 272.3069 15.06411092146032
1 45669U 20035N   23022.08957358  .00000222  00000-0  33808-4 0  9996
2 45669  53.0556 155.9578 0001386  92.4805 267.6342 15.06404038146093
1 45669U 20035N   23023.35017254 -.00000119  00000-0  10895-4 0  9996
2 45669  53.0565 150.2962 0001615  99.0764 261.0408 15.06391075146288
1 45669U 20035N   23023.61555394 -.00000328  00000-0 -30978-5 0  9995
2 45669  53.0550 149.1037 0001573  88.6370 271.4799 15.06400938146324
1 45669U 20035N   23025.47327172  .00000009  00000-0  19512-4 0  9996
2 45669  53.0551 140.7647 0001435  95.7287 264.3866 15.06394583146607
1 45669U 20035N   23025.60596415  .00000551  00000-0  55906-4 0  9998
2 45669  53.0551 140.1702 0001159  81.4960 278.6160 15.06396198147044
1 45669U 20035N   23026.53482104  .00000517  00000-0  53628-4 0  9991
2 45669  53.0551 136.0011 0001239  86.3504 273.7626 15.06399380147182
1 45669U 20035N   23026.53482104  .00000517  00000-0  53628-4 0  9991
2 45669  53.0551 136.0011 0001239  86.3504 273.7626 15.06399380146765
1 45669U 20035N   23027.59636770  .00000995  00000-0  85675-4 0  9995
2 45669  53.0558 131.2338 0001175  92.1670 267.9454 15.06400554146927
1 45669U 20035N   23028.25984204 -.00000004  00000-0  18613-4 0  9997
2 45669  53.0553 128.2572 0001124  95.3528 264.7589 15.06394101147441
1 45669U 20035N   23028.25984204 -.00000004  00000-0  18613-4 0  9997
2 45669  53.0553 128.2572 0001124  95.3528 264.7589 15.06394101147025
1 45669U 20035N   23028.65791488  .00000523  00000-0  53998-4 0  9991
2 45669  53.0557 126.4688 0001107  95.3177 264.7938 15.06405214147507
1 45669U 20035N   23028.65791488  .00000523  00000-0  53998-4 0  9991
2 45669  53.0557 126.4688 0001107  95.3177 264.7938 15.06405214147080
1 45669U 20035N   23029.25504823 -.00000295  00000-0 -90364-6 0  9991
2 45669  53.0554 123.7897 0001217  74.8485 285.2639 15.06390169147173
1 45669U 20035N   23029.65312541  .00000069  00000-0  23543-4 0  9999
2 45669  53.0552 122.0020 0001102  68.2084 291.9022 15.06396585147657
1 45669U 20035N   23029.65312541  .00000069  00000-0  23543-4 0  9999
2 45669  53.0552 122.0020 0001102  68.2084 291.9022 15.06396585147231
1 45669U 20035N   23030.44928757  .00000704  00000-0  66159-4 0  9996
2 45669  53.0546 118.4275 0001083  79.5400 280.5711 15.06395377147776
1 45669U 20035N   23031.24545306  .00002537  00000-0  18921-3 0  9999
2 45669  53.0542 114.8524 0001083  82.1889 277.9223 15.06384922147479
1 45669U 20035N   23031.57718342  .00000864  00000-0  76886-4 0  9993
2 45669  53.0545 113.3652 0001193  65.4861 294.6252 15.06398381147522
1 45669U 20035N   23031.90891926 -.00000224  00000-0  38604-5 0  9998
2 45669  53.0544 111.8751 0001059  70.3857 289.7246 15.06398119147993
